{"type": "FeatureCollection", "features": [ {"type": "Feature", "properties": {"norad_id": 35204, "name": "FENGYUN 1C DEB", "group": "fengyun-1c-debris", "lat": -49.41532495409557, "lon": -13.30290904802645, "alt_km": 735.0878090364904, "timestamp": "2025-12-14T16:47:40.971281+00:00", "meta": {"OBJECT_NAME": "FENGYUN 1C DEB", "OBJECT_ID": "1999-025DPL", "EPOCH": "2025-12-13T11:50:48.969312", "MEAN_MOTION": 14.48807207, "ECCENTRICITY": 0.00395006, "INCLINATION": 99.008, "RA_OF_ASC_NODE": 176.0825, "ARG_OF_PERICENTER": 321.5896, "MEAN_ANOMALY": 101.6083, "EPHEMERIS_TYPE": 0, "CLASSIFICATION_TYPE": "U", "NORAD_CAT_ID": 35204, "ELEMENT_SET_NO": 999, "REV_AT_EPOCH": 90941, "BSTAR": 0.0038598112, "MEAN_MOTION_DOT": 0.00014702, "MEAN_MOTION_DDOT": 0}, "tle": {"line1": "1 35204U 99025DPL 25347.49362233  .00014702  00000+0  38598-2 0  9990", "line2": "2 35204  99.0080 176.0825 0039500 321.5896 101.6083 14.48807207909415"}}, "geometry": {"type": "Point", "coordinates": [-13.30290904802645, -49.41532495409557]}}, {"type": "Feature", "properties": {"norad_id": 35207, "name": "FENGYUN 1C DEB", "group": "fengyun-1c-debris", "lat": -10.500167122126374, "lon": -94.51825163482295, "alt_km": 691.6122962830923, "timestamp": "2025-12-14T16:47:40.971291+00:00", "meta": {"OBJECT_NAME": "FENGYUN 1C DEB", "OBJECT_ID": "1999-025DPP", "EPOCH": "2025-12-12T17:43:10.254432", "MEAN_MOTION": 14.55448901, "ECCENTRICITY": 0.00551737, "INCLINATION": 98.6911, "RA_OF_ASC_NODE": 85.0661, "ARG_OF_PERICENTER": 255.394, "MEAN_ANOMALY": 104.1134, "EPHEMERIS_TYPE": 0, "CLASSIFICATION_TYPE": "U", "NORAD_CAT_ID": 35207, "ELEMENT_SET_NO": 999, "REV_AT_EPOCH": 64904, "BSTAR": 0.0031307529, "MEAN_MOTION_DOT": 0.00013868, "MEAN_MOTION_DDOT": 0}, "tle": {"line1": "1 35207U 99025DPP 25346.73831313  .00013868  00000+0  31308-2 0  9993", "line2": "2 35207  98.6911  85.0661 0055173 255.3940 104.1134 14.55448901649046"}}, "geometry": {"type": "Point", "coordinates": [-94.51825163482295, -10.500167122126374]}}, {"type": "Feature", "properties": {"norad_id": 35208, "name": "FENGYUN 1C DEB", "group": "fengyun-1c-debris", "lat": 33.76569920709897, "lon": -166.1393032450995, "alt_km": 819.3867030426427, "timestamp": "2025-12-14T16:47:40.971301+00:00", "meta": {"OBJECT_NAME": "FENGYUN 1C DEB", "OBJECT_ID": "1999-025DPQ", "EPOCH": "2025-12-12T19:29:45.564288", "MEAN_MOTION": 13.99657071, "ECCENTRICITY": 0.01013151, "INCLINATION": 98.903, "RA_OF_ASC_NODE": 6.0094, "ARG_OF_PERICENTER": 156.4473, "MEAN_ANOMALY": 204.1379, "EPHEMERIS_TYPE": 0, "CLASSIFICATION_TYPE": "U", "NORAD_CAT_ID": 35208, "ELEMENT_SET_NO": 999, "REV_AT_EPOCH": 90564, "BSTAR": 0.0013122763, "MEAN_MOTION_DOT": 1.963e-05, "MEAN_MOTION_DDOT": 0}, "tle": {"line1": "1 35208U 99025DPQ 25346.81233292  .00001963  00000+0  13123-2 0  9993", "line2": "2 35208  98.9030   6.0094 0101315 156.4473 204.1379 13.99657071905647"}}, "geometry": {"type": "Point", "coordinates": [-166.1393032450995, 33.76569920709897]}}, {"type": "Feature", "properties": {"norad_id": 35210, "name": "FENGYUN 1C DEB", "group": "fengyun-1c-debris", "lat": -34.570733705199174, "lon": -1.0622300235550515, "alt_km": 786.4567047468636, "timestamp": "2025-12-14T16:47:40.971311+00:00", "meta": {"OBJECT_NAME": "FENGYUN 1C DEB", "OBJECT_ID": "1999-025DPS", "EPOCH": "2025-12-12T12:04:35.156352", "MEAN_MOTION": 14.33629927, "ECCENTRICITY": 0.00493258, "INCLINATION": 99.0992, "RA_OF_ASC_NODE": 350.2888, "ARG_OF_PERICENTER": 239.8273, "MEAN_ANOMALY": 274.0765, "EPHEMERIS_TYPE": 0, "CLASSIFICATION_TYPE": "U", "NORAD_CAT_ID": 35210, "ELEMENT_SET_NO": 999, "REV_AT_EPOCH": 90119, "BSTAR": 0.0036086515, "MEAN_MOTION_DOT": 0.00010103, "MEAN_MOTION_DDOT": 0}, "tle": {"line1": "1 35210U 99025DPS 25346.50318468  .00010103  00000+0  36087-2 0  9991", "line2": "2 35210  99.0992 350.2888 0049325 239.8273 274.0765 14.33629927901199"}}, "geometry": {"type": "Point", "coordinates": [-1.0622300235550515, -34.570733705199174]}}, {"type": "Feature", "properties": {"norad_id": 35217, "name": "FENGYUN 1C DEB", "group": "fengyun-1c-debris", "lat": 20.67386075970625, "lon": -100.28850707054494, "alt_km": 1035.9649860971376, "timestamp": "2025-12-14T16:47:40.971321+00:00", "meta": {"OBJECT_NAME": "FENGYUN 1C DEB", "OBJECT_ID": "1999-025DPZ", "EPOCH": "2025-12-13T12:23:31.844256", "MEAN_MOTION": 13.57513235, "ECCENTRICITY": 0.03024432, "INCLINATION": 101.8762, "RA_OF_ASC_NODE": 262.838, "ARG_OF_PERICENTER": 294.4123, "MEAN_ANOMALY": 62.5727, "EPHEMERIS_TYPE": 0, "CLASSIFICATION_TYPE": "U", "NORAD_CAT_ID": 35217, "ELEMENT_SET_NO": 999, "REV_AT_EPOCH": 61230, "BSTAR": 0.0033980834, "MEAN_MOTION_DOT": 3.218e-05, "MEAN_MOTION_DDOT": 0}, "tle": {"line1": "1 35217U 99025DPZ 25347.51634079  .00003218  00000+0  33981-2 0  9998", "line2": "2 35217 101.8762 262.8380 0302443 294.4123  62.5727 13.57513235612301"}}, "geometry": {"type": "Point", "coordinates": [-100.28850707054494, 20.67386075970625]}}, {"type": "Feature", "properties": {"norad_id": 35220, "name": "FENGYUN 1C DEB", "group": "fengyun-1c-debris", "lat": -64.57982910530569, "lon": 78.32130651329774, "alt_km": 792.92332155843, "timestamp": "2025-12-14T16:47:40.971331+00:00", "meta": {"OBJECT_NAME": "FENGYUN 1C DEB", "OBJECT_ID": "1999-025DQC", "EPOCH": "2025-12-09T03:44:46.125024", "MEAN_MOTION": 14.22518775, "ECCENTRICITY": 0.00434323, "INCLINATION": 99.0273, "RA_OF_ASC_NODE": 53.1031, "ARG_OF_PERICENTER": 317.8282, "MEAN_ANOMALY": 41.9557, "EPHEMERIS_TYPE": 0, "CLASSIFICATION_TYPE": "U", "NORAD_CAT_ID": 35220, "ELEMENT_SET_NO": 999, "REV_AT_EPOCH": 63132, "BSTAR": 0.0018808139, "MEAN_MOTION_DOT": 4.193e-05, "MEAN_MOTION_DDOT": 0}, "tle": {"line1": "1 35220U 99025DQC 25343.15608941  .00004193  00000+0  18808-2 0  9991", "line2": "2 35220  99.0273  53.1031 0043432 317.8282  41.9557 14.22518775631322"}}, "geometry": {"type": "Point", "coordinates": [78.32130651329774, -64.57982910530569]}}, {"type": "Feature", "properties": {"norad_id": 35223, "name": "FENGYUN 1C DEB", "group": "fengyun-1c-debris", "lat": -10.470924180542442, "lon": -26.878716409409463, "alt_km": 527.0047919114086, "timestamp": "2025-12-14T16:47:40.971341+00:00", "meta": {"OBJECT_NAME": "FENGYUN 1C DEB", "OBJECT_ID": "1999-025DQF", "EPOCH": "2025-12-13T21:29:17.746656", "MEAN_MOTION": 14.89005662, "ECCENTRICITY": 0.01281214, "INCLINATION": 98.9715, "RA_OF_ASC_NODE": 330.5373, "ARG_OF_PERICENTER": 322.7694, "MEAN_ANOMALY": 36.4687, "EPHEMERIS_TYPE": 0, "CLASSIFICATION_TYPE": "U", "NORAD_CAT_ID": 35223, "ELEMENT_SET_NO": 999, "REV_AT_EPOCH": 93899, "BSTAR": 0.001014357, "MEAN_MOTION_DOT": 0.00011064, "MEAN_MOTION_DDOT": 0}, "tle": {"line1": "1 35223U 99025DQF 25347.89534429  .00011064  00000+0  10144-2 0  9998", "line2": "2 35223  98.9715 330.5373 0128121 322.7694  36.4687 14.89005662938991"}}, "geometry": {"type": "Point", "coordinates": [-26.878716409409463, -10.470924180542442]}}, {"type": "Feature", "properties": {"norad_id": 35229, "name": "FENGYUN 1C DEB", "group": "fengyun-1c-debris", "lat": -77.96143305835976, "lon": -156.51495539283462, "alt_km": 677.815030145015, "timestamp": "2025-12-14T16:47:40.971350+00:00", "meta": {"OBJECT_NAME": "FENGYUN 1C DEB", "OBJECT_ID": "1999-025DQM", "EPOCH": "2025-12-08T23:08:00.019104", "MEAN_MOTION": 14.60344709, "ECCENTRICITY": 0.0047489, "INCLINATION": 98.4583, "RA_OF_ASC_NODE": 61.8783, "ARG_OF_PERICENTER": 226.2462, "MEAN_ANOMALY": 133.4802, "EPHEMERIS_TYPE": 0, "CLASSIFICATION_TYPE": "U", "NORAD_CAT_ID": 35229, "ELEMENT_SET_NO": 999, "REV_AT_EPOCH": 64451, "BSTAR": 0.006925, "MEAN_MOTION_DOT": 0.00034127, "MEAN_MOTION_DDOT": 0}, "tle": {"line1": "1 35229U 99025DQM 25342.96388911  .00034127  00000+0  69250-2 0  9997", "line2": "2 35229  98.4583  61.8783 0047489 226.2462 133.4802 14.60344709644518"}}, "geometry": {"type": "Point", "coordinates": [-156.51495539283462, -77.96143305835976]}}, {"type": "Feature", "properties": {"norad_id": 35231, "name": "FENGYUN 1C DEB", "group": "fengyun-1c-debris", "lat": -79.5970542409749, "lon": 155.09233425057735, "alt_km": 878.6078453684613, "timestamp": "2025-12-14T16:47:40.971360+00:00", "meta": {"OBJECT_NAME": "FENGYUN 1C DEB", "OBJECT_ID": "1999-025DQP", "EPOCH": "2025-12-13T14:05:10.823712", "MEAN_MOTION": 14.14528526, "ECCENTRICITY": 0.00380176, "INCLINATION": 98.7207, "RA_OF_ASC_NODE": 30.7311, "ARG_OF_PERICENTER": 82.7766, "MEAN_ANOMALY": 277.7727, "EPHEMERIS_TYPE": 0, "CLASSIFICATION_TYPE": "U", "NORAD_CAT_ID": 35231, "ELEMENT_SET_NO": 999, "REV_AT_EPOCH": 91514, "BSTAR": 3.6476245e-05, "MEAN_MOTION_DOT": 2.8e-07, "MEAN_MOTION_DDOT": 0}, "tle": {"line1": "1 35231U 99025DQP 25347.58693083  .00000028  00000+0  36476-4 0  9991", "line2": "2 35231  98.7207  30.7311 0038017  82.7766 277.7727 14.14528526915146"}}, "geometry": {"type": "Point", "coordinates": [155.09233425057735, -79.5970542409749]}}, {"type": "Feature", "properties": {"norad_id": 35233, "name": "FENGYUN 1C DEB", "group": "fengyun-1c-debris", "lat": 7.531877127824572, "lon": -90.95010347008866, "alt_km": 750.4482247749775, "timestamp": "2025-12-14T16:47:40.971370+00:00", "meta": {"OBJECT_NAME": "FENGYUN 1C DEB", "OBJECT_ID": "1999-025DQR", "EPOCH": "2025-12-12T18:05:16.400256", "MEAN_MOTION": 14.41867932, "ECCENTRICITY": 0.00414884, "INCLINATION": 98.7697, "RA_OF_ASC_NODE": 85.8822, "ARG_OF_PERICENTER": 261.1566, "MEAN_ANOMALY": 255.4882, "EPHEMERIS_TYPE": 0, "CLASSIFICATION_TYPE": "U", "NORAD_CAT_ID": 35233, "ELEMENT_SET_NO": 999, "REV_AT_EPOCH": 91176, "BSTAR": 0.0028204127, "MEAN_MOTION_DOT": 9.288e-05, "MEAN_MOTION_DDOT": 0}, "tle": {"line1": "1 35233U 99025DQR 25346.75366204  .00009288  00000+0  28204-2 0  9998", "line2": "2 35233  98.7697  85.8822 0041488 261.1566 255.4882 14.41867932911762"}}, "geometry": {"type": "Point", "coordinates": [-90.95010347008866, 7.531877127824572]}}]}